TRANSIT 16 [?]          
1 02807U 67048A   17052.22244141  .00000030  00000-0  30386-4 0  9994
2 02807  89.6280 109.0850 0022007  57.8024  28.0925 13.50142189449177
TRANSIT 17 [?]          
1 02965U 67092A   17052.23385043  .00000037  00000-0  38439-4 0  9990
2 02965  89.2403 268.5574 0046853 209.5793 253.1904 13.52864917436449
TRANSIT 18 [?]          
1 03133U 68012A   17052.17746487  .00000028  00000-0  26599-4 0  9991
2 03133  89.9581 275.6690 0077168 124.4426 349.9847 13.50973936411342
NNSS 19 [?]             
1 04507U 70067A   17051.70364995  .00000061  00000-0  75114-4 0  9992
2 04507  89.8289 264.7021 0170505 247.4969 110.8054 13.50641176288295
NNSS O-20 [?]           
1 06909U 73081A   17052.30974962  .00000070  00000-0  62864-4 0  9995
2 06909  89.8327 314.7079 0157457 353.1144   6.7853 13.70429620363278
TRANSAT [?]             
1 10457U 77106A   17051.91086527  .00000024  00000-0  22566-4 0  9991
2 10457  89.7688 174.7216 0027174 106.1370  11.3957 13.48561859933856
NOVA I [?]              
1 12458U 81044A   17051.85523819  .00000019  00000-0  24503-4 0  9990
2 12458  89.9619 121.9261 0013086 340.1407 138.2999 13.22957109726761
NOVA 3 [?]              
1 15362U 84110A   17052.13748157  .00000044  00000-0  84761-4 0  9990
2 15362  90.0389  54.3468 0031393 191.0984 211.8247 13.22726252562009
OSCAR 30 [?]            
1 15935U 85066A   17051.92238507  .00000074  00000-0  11594-3 0  9992
2 15935  90.1252  48.7650 0169729 156.1967 262.2078 13.35611798535096
OSCAR 24 [?]            
1 15936U 85066B   17051.95039407  .00000041  00000-0  56514-4 0  9990
2 15936  90.1138  42.6995 0170326 160.3464 228.9449 13.35490161537046
POLAR BEAR [?]          
1 17070U 86088A   17052.37053824  .00000050  00000-0  40447-4 0  9990
2 17070  89.5445 332.6725 0040835  95.4946  22.6016 13.74722327518118
OSCAR 27 [?]            
1 18361U 87080A   17052.17862074  .00000051  00000-0  70113-4 0  9994
2 18361  90.3394 331.6637 0106648  72.7480 288.5306 13.44423568443587
OSCAR 29 [?]            
1 18362U 87080B   17051.86233382  .00000049  00000-0  65447-4 0  9995
2 18362  90.3400 331.8749 0108310  89.7029 339.1245 13.44014795442950
OSCAR 23 [?]            
1 19070U 88033A   17052.19969771  .00000047  00000-0  74626-4 0  9993
2 19070  90.3585 269.3816 0191976 122.6117 354.1139 13.27401077396047
OSCAR 32 [?]            
1 19071U 88033B   17052.66571718  .00000066  00000-0  11374-3 0  9997
2 19071  90.3584 269.4740 0190139 110.8886 284.0279 13.27585166396325
NOVA 11 [?]             
1 19223U 88052A   17051.63588939  .00000029  00000-0  47691-4 0  9997
2 19223  89.9602  87.4127 0028965 236.1609 235.9556 13.22644696384181
OSCAR 25 [?]            
1 19419U 88074A   17052.90584959  .00000068  00000-0  10046-3 0  9993
2 19419  89.9842  19.1357 0098275  57.4470 355.1146 13.42158343395264
OSCAR 31 [?]            
1 19420U 88074B   17051.97285837  .00000085  00000-0  12935-3 0  9992
2 19420  89.9846  19.1476 0096370  54.3928  11.4757 13.42169483394974
